ONEWEB-0290             
1 49080U 21075F   26179.56889844  .00000069  00000+0  14341-3 0  9993
2 49080  87.9141   3.5909 0002095 103.1116 257.0249 13.17649468235118
ONEWEB-0291             
1 49081U 21075G   26179.55370689  .00000194  00000+0  46664-3 0  9997
2 49081  87.9133   3.6006 0002254  89.6401 270.4989 13.17649903235104
ONEWEB-0293             
1 49082U 21075H   26179.50307947  .00000051  00000+0  99391-4 0  9998
2 49082  87.9132   3.6138 0001970  93.4652 266.6705 13.17649424235128
ONEWEB-0294             
1 49083U 21075J   26179.46111674  .00000468  00000+0  12654-2 0  9991
2 49083  87.8954 348.4169 0002026 101.4652 258.6704 13.12442368236053
ONEWEB-0295             
1 49084U 21075K   26179.57817622  .00000084  00000+0  18318-3 0  9998
2 49084  87.9131   3.6028 0002159  86.4129 273.7250 13.17649600235094
ONEWEB-0296             
1 49085U 21075L   26179.51702309  .00000044  00000+0  85835-4 0  9993
2 49085  87.8956 348.4135 0002135  90.7748 269.3626 13.12442813236065
ONEWEB-0297             
1 49086U 21075M   26179.47127630  .00000317  00000+0  84592-3 0  9998
2 49086  87.8941 348.4318 0001916  90.8128 269.3220 13.12440801236663
ONEWEB-0298             
1 49087U 21075N   26179.50660366  .00000064  00000+0  13061-3 0  9993
2 49087  87.9131   3.6152 0001835  86.1497 273.9845 13.17648398235118
ONEWEB-0299             
1 49088U 21075P   26179.50813496  .00000095  00000+0  21175-3 0  9997
2 49088  87.9142   3.5962 0001990  86.0953 274.0406 13.17651125235091
ONEWEB-0300             
1 49089U 21075Q   26179.53989032  .00000446  00000+0  12033-2 0  9993
2 49089  87.8954 348.3988 0001625  82.1721 277.9592 13.12441500236699
ONEWEB-0301             
1 49090U 21075R   26179.44756007  .00000224  00000+0  58846-3 0  9996
2 49090  87.8950 348.4152 0001526  86.6503 273.4800 13.12441896236048
ONEWEB-0302             
1 49091U 21075S   26179.51023255 -.00000234  00000+0 -68601-3 0  9990
2 49091  87.8954 348.4150 0002098  98.2531 261.8836 13.12444507236037
ONEWEB-0304             
1 49092U 21075T   26179.55876137  .00000074  00000+0  15732-3 0  9997
2 49092  87.9132   3.6076 0002009  87.3706 272.7656 13.17649929235073
ONEWEB-0305             
1 49093U 21075U   26179.55201469  .00000002  00000+0 -28631-4 0  9993
2 49093  87.9140   3.5941 0002164  82.5546 277.5831 13.17649748235105
ONEWEB-0308             
1 49094U 21075V   26179.50345244 -.00000432  00000+0 -12358-2 0  9994
2 49094  87.8954 348.4083 0001828  93.4178 266.7160 13.12443405236040
ONEWEB-0309             
1 49095U 21075W   26179.55539325  .00000056  00000+0  11158-3 0  9993
2 49095  87.9130   3.6009 0002218 100.1292 260.0090 13.17649282235070
ONEWEB-0310             
1 49096U 21075X   26179.51871431  .00000090  00000+0  21459-3 0  9990
2 49096  87.8942 348.4257 0001842  93.5744 266.5595 13.12443371236679
ONEWEB-0311             
1 49097U 21075Y   26179.56213347  .00000083  00000+0  18013-3 0  9996
2 49097  87.9132   3.5994 0002082  78.7644 281.3722 13.17650824235124
ONEWEB-0312             
1 49098U 21075Z   26179.57732089  .00000079  00000+0  16969-3 0  9990
2 49098  87.9131   3.6069 0002173  88.3231 271.8150 13.17648542235109
ONEWEB-0313             
1 49099U 21075AA  26179.58225392  .00000069  00000+0  14559-3 0  9998
2 49099  87.9129   3.6113 0001947  86.7426 273.3929 13.17649826235098
ONEWEB-0314             
1 49100U 21075AB  26179.54864893  .00000044  00000+0  80578-4 0  9990
2 49100  87.9141   3.5920 0002237  86.9631 273.1756 13.17649896235063
ONEWEB-0315             
1 49101U 21075AC  26179.49159640 -.00000330  00000+0 -95152-3 0  9995
2 49101  87.8953 348.3959 0001901  80.9030 279.2313 13.12441506236655
ONEWEB-0316             
1 49102U 21075AD  26179.46439568 -.00000708  00000+0 -18289-2 0  9997
2 49102  87.9178 333.2120 0001811  95.7704 264.3635 13.18677840238697
ONEWEB-0317             
1 49103U 21075AE  26179.49498467 -.00000393  00000+0 -11269-2 0  9995
2 49103  87.8955 348.4195 0001985 114.6559 245.4777 13.12442108236675
ONEWEB-0318             
1 49104U 21075AF  26179.46103892  .00001303  00000+0  32722-2 0  9995
2 49104  87.9177 333.2148 0001893  89.8825 270.2524 13.18678321238650
ONEWEB-0319             
1 49105U 21075AG  26179.56382606  .00000082  00000+0  17768-3 0  9996
2 49105  87.9131   3.6043 0001950  73.9555 286.1791 13.17649878235104
ONEWEB-0323             
1 49106U 21075AH  26179.47635747  .00000138  00000+0  34944-3 0  9991
2 49106  87.8954 348.4043 0002077  78.2522 281.8839 13.12440645236034
ONEWEB-0329             
1 49107U 21075AJ  26179.49633067  .00000050  00000+0  95787-4 0  9993
2 49107  87.9131   3.6185 0001998  88.2584 271.8776 13.17649468235071
ONEWEB-0330             
1 49108U 21075AK  26179.58509828  .00000087  00000+0  18536-3 0  9997
2 49108  87.9134   3.6163 0002107  91.9590 268.1784 13.19184275235128
RSW-01                  
1 49112U 21076A   26179.60076929 -.00000166  00000+0 -31929-3 0  9998
2 49112  86.4100 153.7459 0017001  38.4289 321.8063 13.42857492237410
