OBJECT_NAME,OBJECT_ID,EPOCH,MEAN_MOTION,ECCENTRICITY,INCLINATION,RA_OF_ASC_NODE,ARG_OF_PERICENTER,MEAN_ANOMALY,EPHEMERIS_TYPE,CLASSIFICATION_TYPE,NORAD_CAT_ID,ELEMENT_SET_NO,REV_AT_EPOCH,BSTAR,MEAN_MOTION_DOT,MEAN_MOTION_DDOT
ONEWEB-0290,2021-075F,2026-06-28T13:39:12.825216,13.17649468,.00020959,87.9141,3.5909,103.1116,257.0249,0,U,49080,999,23511,.14340807E-3,.69E-6,0
ONEWEB-0291,2021-075G,2026-06-28T13:17:20.275296,13.17649903,.00022547,87.9133,3.6006,89.6401,270.4989,0,U,49081,999,23510,.46664497E-3,.194E-5,0
ONEWEB-0293,2021-075H,2026-06-28T12:04:26.066208,13.17649424,.00019705,87.9132,3.6138,93.4652,266.6705,0,U,49082,999,23512,.99391434E-4,.51E-6,0
ONEWEB-0294,2021-075J,2026-06-28T11:04:00.486336,13.12442368,.00020268,87.8954,348.4169,101.4652,258.6704,0,U,49083,999,23605,.1265427E-2,.468E-5,0
ONEWEB-0295,2021-075K,2026-06-28T13:52:34.425408,13.17649600,.00021592,87.9131,3.6028,86.4129,273.7250,0,U,49084,999,23509,.18317865E-3,.84E-6,0
ONEWEB-0296,2021-075L,2026-06-28T12:24:30.794976,13.12442813,.00021359,87.8956,348.4135,90.7748,269.3626,0,U,49085,999,23606,.85835217E-4,.44E-6,0
ONEWEB-0297,2021-075M,2026-06-28T11:18:38.272320,13.12440801,.00019167,87.8941,348.4318,90.8128,269.3220,0,U,49086,999,23666,.84591676E-3,.317E-5,0
ONEWEB-0298,2021-075N,2026-06-28T12:09:30.556224,13.17648398,.00018359,87.9131,3.6152,86.1497,273.9845,0,U,49087,999,23511,.13061203E-3,.64E-6,0
ONEWEB-0299,2021-075P,2026-06-28T12:11:42.860544,13.17651125,.00019907,87.9142,3.5962,86.0953,274.0406,0,U,49088,999,23509,.21174606E-3,.95E-6,0
ONEWEB-0300,2021-075Q,2026-06-28T12:57:26.523648,13.12441500,.00016259,87.8954,348.3988,82.1721,277.9592,0,U,49089,999,23669,.12032974E-2,.446E-5,0
ONEWEB-0301,2021-075R,2026-06-28T10:44:29.190048,13.12441896,.00015265,87.8950,348.4152,86.6503,273.4800,0,U,49090,999,23604,.58845939E-3,.224E-5,0
ONEWEB-0302,2021-075S,2026-06-28T12:14:44.092320,13.12444507,.00020989,87.8954,348.4150,98.2531,261.8836,0,U,49091,999,23603,-.68600925E-3,-.234E-5,0
ONEWEB-0304,2021-075T,2026-06-28T13:24:36.982368,13.17649929,.00020099,87.9132,3.6076,87.3706,272.7656,0,U,49092,999,23507,.15732437E-3,.74E-6,0
ONEWEB-0305,2021-075U,2026-06-28T13:14:54.069216,13.17649748,.00021648,87.9140,3.5941,82.5546,277.5831,0,U,49093,999,23510,-.2863094E-4,.2E-7,0
ONEWEB-0308,2021-075V,2026-06-28T12:04:58.290816,13.12443405,.00018286,87.8954,348.4083,93.4178,266.7160,0,U,49094,999,23604,-.12358434E-2,-.432E-5,0
ONEWEB-0309,2021-075W,2026-06-28T13:19:45.976800,13.17649282,.00022188,87.9130,3.6009,100.1292,260.0090,0,U,49095,999,23507,.11158207E-3,.56E-6,0
ONEWEB-0310,2021-075X,2026-06-28T12:26:56.916384,13.12443371,.00018425,87.8942,348.4257,93.5744,266.5595,0,U,49096,999,23667,.21459482E-3,.9E-6,0
ONEWEB-0311,2021-075Y,2026-06-28T13:29:28.331808,13.17650824,.00020829,87.9132,3.5994,78.7644,281.3722,0,U,49097,999,23512,.18013405E-3,.83E-6,0
ONEWEB-0312,2021-075Z,2026-06-28T13:51:20.524896,13.17648542,.00021737,87.9131,3.6069,88.3231,271.8150,0,U,49098,999,23510,.16969049E-3,.79E-6,0
ONEWEB-0313,2021-075AA,2026-06-28T13:58:26.738688,13.17649826,.00019477,87.9129,3.6113,86.7426,273.3929,0,U,49099,999,23509,.14558614E-3,.69E-6,0
ONEWEB-0314,2021-075AB,2026-06-28T13:10:03.267552,13.17649896,.00022376,87.9141,3.5920,86.9631,273.1756,0,U,49100,999,23506,.80578137E-4,.44E-6,0
ONEWEB-0315,2021-075AC,2026-06-28T11:47:53.928960,13.12441506,.00019015,87.8953,348.3959,80.9030,279.2313,0,U,49101,999,23665,-.95151539E-3,-.33E-5,0
ONEWEB-0316,2021-075AD,2026-06-28T11:08:43.786752,13.18677840,.00018118,87.9178,333.2120,95.7704,264.3635,0,U,49102,999,23869,-.18288863E-2,-.708E-5,0
ONEWEB-0317,2021-075AE,2026-06-28T11:52:46.675488,13.12442108,.00019852,87.8955,348.4195,114.6559,245.4777,0,U,49103,999,23667,-.1126938E-2,-.393E-5,0
ONEWEB-0318,2021-075AF,2026-06-28T11:03:53.762688,13.18678321,.00018932,87.9177,333.2148,89.8825,270.2524,0,U,49104,999,23865,.32721905E-2,.1303E-4,0
ONEWEB-0319,2021-075AG,2026-06-28T13:31:54.571584,13.17649878,.000195,87.9131,3.6043,73.9555,286.1791,0,U,49105,999,23510,.17768227E-3,.82E-6,0
ONEWEB-0323,2021-075AH,2026-06-28T11:25:57.285408,13.12440645,.0002077,87.8954,348.4043,78.2522,281.8839,0,U,49106,999,23603,.34944049E-3,.138E-5,0
ONEWEB-0329,2021-075AJ,2026-06-28T11:54:42.969888,13.17649468,.00019983,87.9131,3.6185,88.2584,271.8776,0,U,49107,999,23507,.95787169E-4,.5E-6,0
ONEWEB-0330,2021-075AK,2026-06-28T14:02:32.491392,13.19184275,.00021074,87.9134,3.6163,91.9590,268.1784,0,U,49108,999,23512,.18535648E-3,.87E-6,0
RSW-01,2021-076A,2026-06-28T14:25:06.466656,13.42857492,.0017001,86.4100,153.7459,38.4289,321.8063,0,U,49112,999,23741,-.3192864E-3,-.166E-5,0
